ORBCOMM FM05            
1 25117U 97084F   26026.24842924  .00002959  00000+0  84645-3 0  9999
2 25117  45.0155  16.3202 0004255 279.8265  80.2107 14.46912415472904
ORBCOMM FM06            
1 25118U 97084G   26025.94586357  .00003390  00000+0  96049-3 0  9992
2 25118  45.0143  17.2401 0003216 283.0142 102.0832 14.47081207473782
ORBCOMM FM07            
1 25119U 97084H   26026.02203571  .00002975  00000+0  84767-3 0  9999
2 25119  45.0137  17.6167 0004994 274.3117  85.7165 14.47088565473788
ORBCOMM FM03            
1 25158U 98007B   26026.50734859  .00002012  00000+0  73991-3 0  9998
2 25158 107.9655 234.5528 0045744 220.0773 139.6988 14.35190058456072
ORBCOMM FM04            
1 25159U 98007C   26026.52320839  .00001784  00000+0  65960-3 0  9992
2 25159 107.9651 237.9588 0041487 217.5080 142.3164 14.35424042456265
ORBCOMM FM17            
1 25413U 98046A   26026.68301351  .00001372  00000+0  51978-3 0  9990
2 25413  44.9935 282.3970 0002682 278.5994  81.4549 14.35653812435285
ORBCOMM FM18            
1 25414U 98046B   26026.77750419  .00002341  00000+0  79194-3 0  9991
2 25414  44.9905 193.2215 0003585 324.6349  35.4261 14.39312102436453
ORBCOMM FM19            
1 25415U 98046C   26026.85266673  .00002037  00000+0  69760-3 0  9995
2 25415  44.9914 195.2035 0002423 316.4788 199.9439 14.39134221436415
