<?xml version="1.0" encoding="UTF-8"?>
<ndm xmlns:xsi="http://www.w3.org/2001/XMLSchema-instance" xsi:noNamespaceSchemaLocation="https://sanaregistry.org/r/ndmxml_unqualified/ndmxml-2.0.0-master-2.0.xsd">
<omm id="CCSDS_OMM_VERS" version="2.0">
<header><CREATION_DATE/><ORIGINATOR/></header><body><segment><metadata><OBJECT_NAME>ORBCOMM FM05</OBJECT_NAME><OBJECT_ID>1997-084F</OBJECT_ID><CENTER_NAME>EARTH</CENTER_NAME><REF_FRAME>TEME</REF_FRAME><TIME_SYSTEM>UTC</TIME_SYSTEM><MEAN_ELEMENT_THEORY>SGP4</MEAN_ELEMENT_THEORY></metadata><data><meanElements><EPOCH>2026-01-26T05:57:44.286336</EPOCH><MEAN_MOTION>14.46912415</MEAN_MOTION><ECCENTRICITY>.0004255</ECCENTRICITY><INCLINATION>45.0155</INCLINATION><RA_OF_ASC_NODE>16.3202</RA_OF_ASC_NODE><ARG_OF_PERICENTER>279.8265</ARG_OF_PERICENTER><MEAN_ANOMALY>80.2107</MEAN_ANOMALY></meanElements><tleParameters><EPHEMERIS_TYPE>0</EPHEMERIS_TYPE><CLASSIFICATION_TYPE>U</CLASSIFICATION_TYPE><NORAD_CAT_ID>25117</NORAD_CAT_ID><ELEMENT_SET_NO>999</ELEMENT_SET_NO><REV_AT_EPOCH>47290</REV_AT_EPOCH><BSTAR>.84645E-3</BSTAR><MEAN_MOTION_DOT>.2959E-4</MEAN_MOTION_DOT><MEAN_MOTION_DDOT>0</MEAN_MOTION_DDOT></tleParameters></data></segment></body></omm>
<omm id="CCSDS_OMM_VERS" version="2.0">
<header><CREATION_DATE/><ORIGINATOR/></header><body><segment><metadata><OBJECT_NAME>ORBCOMM FM06</OBJECT_NAME><OBJECT_ID>1997-084G</OBJECT_ID><CENTER_NAME>EARTH</CENTER_NAME><REF_FRAME>TEME</REF_FRAME><TIME_SYSTEM>UTC</TIME_SYSTEM><MEAN_ELEMENT_THEORY>SGP4</MEAN_ELEMENT_THEORY></metadata><data><meanElements><EPOCH>2026-01-25T22:42:02.612448</EPOCH><MEAN_MOTION>14.47081207</MEAN_MOTION><ECCENTRICITY>.00032167</ECCENTRICITY><INCLINATION>45.0143</INCLINATION><RA_OF_ASC_NODE>17.2401</RA_OF_ASC_NODE><ARG_OF_PERICENTER>283.0142</ARG_OF_PERICENTER><MEAN_ANOMALY>102.0832</MEAN_ANOMALY></meanElements><tleParameters><EPHEMERIS_TYPE>0</EPHEMERIS_TYPE><CLASSIFICATION_TYPE>U</CLASSIFICATION_TYPE><NORAD_CAT_ID>25118</NORAD_CAT_ID><ELEMENT_SET_NO>999</ELEMENT_SET_NO><REV_AT_EPOCH>47378</REV_AT_EPOCH><BSTAR>.96049384E-3</BSTAR><MEAN_MOTION_DOT>.339E-4</MEAN_MOTION_DOT><MEAN_MOTION_DDOT>0</MEAN_MOTION_DDOT></tleParameters></data></segment></body></omm>
<omm id="CCSDS_OMM_VERS" version="2.0">
<header><CREATION_DATE/><ORIGINATOR/></header><body><segment><metadata><OBJECT_NAME>ORBCOMM FM07</OBJECT_NAME><OBJECT_ID>1997-084H</OBJECT_ID><CENTER_NAME>EARTH</CENTER_NAME><REF_FRAME>TEME</REF_FRAME><TIME_SYSTEM>UTC</TIME_SYSTEM><MEAN_ELEMENT_THEORY>SGP4</MEAN_ELEMENT_THEORY></metadata><data><meanElements><EPOCH>2026-01-26T00:31:43.885344</EPOCH><MEAN_MOTION>14.47088565</MEAN_MOTION><ECCENTRICITY>.00049946</ECCENTRICITY><INCLINATION>45.0137</INCLINATION><RA_OF_ASC_NODE>17.6167</RA_OF_ASC_NODE><ARG_OF_PERICENTER>274.3117</ARG_OF_PERICENTER><MEAN_ANOMALY>85.7165</MEAN_ANOMALY></meanElements><tleParameters><EPHEMERIS_TYPE>0</EPHEMERIS_TYPE><CLASSIFICATION_TYPE>U</CLASSIFICATION_TYPE><NORAD_CAT_ID>25119</NORAD_CAT_ID><ELEMENT_SET_NO>999</ELEMENT_SET_NO><REV_AT_EPOCH>47378</REV_AT_EPOCH><BSTAR>.84766842E-3</BSTAR><MEAN_MOTION_DOT>.2975E-4</MEAN_MOTION_DOT><MEAN_MOTION_DDOT>0</MEAN_MOTION_DDOT></tleParameters></data></segment></body></omm>
<omm id="CCSDS_OMM_VERS" version="2.0">
<header><CREATION_DATE/><ORIGINATOR/></header><body><segment><metadata><OBJECT_NAME>ORBCOMM FM03</OBJECT_NAME><OBJECT_ID>1998-007B</OBJECT_ID><CENTER_NAME>EARTH</CENTER_NAME><REF_FRAME>TEME</REF_FRAME><TIME_SYSTEM>UTC</TIME_SYSTEM><MEAN_ELEMENT_THEORY>SGP4</MEAN_ELEMENT_THEORY></metadata><data><meanElements><EPOCH>2026-01-26T12:10:34.918176</EPOCH><MEAN_MOTION>14.35190058</MEAN_MOTION><ECCENTRICITY>.00457444</ECCENTRICITY><INCLINATION>107.9655</INCLINATION><RA_OF_ASC_NODE>234.5528</RA_OF_ASC_NODE><ARG_OF_PERICENTER>220.0773</ARG_OF_PERICENTER><MEAN_ANOMALY>139.6988</MEAN_ANOMALY></meanElements><tleParameters><EPHEMERIS_TYPE>0</EPHEMERIS_TYPE><CLASSIFICATION_TYPE>U</CLASSIFICATION_TYPE><NORAD_CAT_ID>25158</NORAD_CAT_ID><ELEMENT_SET_NO>999</ELEMENT_SET_NO><REV_AT_EPOCH>45607</REV_AT_EPOCH><BSTAR>.7399117E-3</BSTAR><MEAN_MOTION_DOT>.2012E-4</MEAN_MOTION_DOT><MEAN_MOTION_DDOT>0</MEAN_MOTION_DDOT></tleParameters></data></segment></body></omm>
<omm id="CCSDS_OMM_VERS" version="2.0">
<header><CREATION_DATE/><ORIGINATOR/></header><body><segment><metadata><OBJECT_NAME>ORBCOMM FM04</OBJECT_NAME><OBJECT_ID>1998-007C</OBJECT_ID><CENTER_NAME>EARTH</CENTER_NAME><REF_FRAME>TEME</REF_FRAME><TIME_SYSTEM>UTC</TIME_SYSTEM><MEAN_ELEMENT_THEORY>SGP4</MEAN_ELEMENT_THEORY></metadata><data><meanElements><EPOCH>2026-01-26T12:33:25.204896</EPOCH><MEAN_MOTION>14.35424042</MEAN_MOTION><ECCENTRICITY>.00414874</ECCENTRICITY><INCLINATION>107.9651</INCLINATION><RA_OF_ASC_NODE>237.9588</RA_OF_ASC_NODE><ARG_OF_PERICENTER>217.5080</ARG_OF_PERICENTER><MEAN_ANOMALY>142.3164</MEAN_ANOMALY></meanElements><tleParameters><EPHEMERIS_TYPE>0</EPHEMERIS_TYPE><CLASSIFICATION_TYPE>U</CLASSIFICATION_TYPE><NORAD_CAT_ID>25159</NORAD_CAT_ID><ELEMENT_SET_NO>999</ELEMENT_SET_NO><REV_AT_EPOCH>45626</REV_AT_EPOCH><BSTAR>.65960121E-3</BSTAR><MEAN_MOTION_DOT>.1784E-4</MEAN_MOTION_DOT><MEAN_MOTION_DDOT>0</MEAN_MOTION_DDOT></tleParameters></data></segment></body></omm>
<omm id="CCSDS_OMM_VERS" version="2.0">
<header><CREATION_DATE/><ORIGINATOR/></header><body><segment><metadata><OBJECT_NAME>ORBCOMM FM17</OBJECT_NAME><OBJECT_ID>1998-046A</OBJECT_ID><CENTER_NAME>EARTH</CENTER_NAME><REF_FRAME>TEME</REF_FRAME><TIME_SYSTEM>UTC</TIME_SYSTEM><MEAN_ELEMENT_THEORY>SGP4</MEAN_ELEMENT_THEORY></metadata><data><meanElements><EPOCH>2026-01-26T16:23:32.367264</EPOCH><MEAN_MOTION>14.35653812</MEAN_MOTION><ECCENTRICITY>.0002682</ECCENTRICITY><INCLINATION>44.9935</INCLINATION><RA_OF_ASC_NODE>282.3970</RA_OF_ASC_NODE><ARG_OF_PERICENTER>278.5994</ARG_OF_PERICENTER><MEAN_ANOMALY>81.4549</MEAN_ANOMALY></meanElements><tleParameters><EPHEMERIS_TYPE>0</EPHEMERIS_TYPE><CLASSIFICATION_TYPE>U</CLASSIFICATION_TYPE><NORAD_CAT_ID>25413</NORAD_CAT_ID><ELEMENT_SET_NO>999</ELEMENT_SET_NO><REV_AT_EPOCH>43528</REV_AT_EPOCH><BSTAR>.51978E-3</BSTAR><MEAN_MOTION_DOT>.1372E-4</MEAN_MOTION_DOT><MEAN_MOTION_DDOT>0</MEAN_MOTION_DDOT></tleParameters></data></segment></body></omm>
<omm id="CCSDS_OMM_VERS" version="2.0">
<header><CREATION_DATE/><ORIGINATOR/></header><body><segment><metadata><OBJECT_NAME>ORBCOMM FM18</OBJECT_NAME><OBJECT_ID>1998-046B</OBJECT_ID><CENTER_NAME>EARTH</CENTER_NAME><REF_FRAME>TEME</REF_FRAME><TIME_SYSTEM>UTC</TIME_SYSTEM><MEAN_ELEMENT_THEORY>SGP4</MEAN_ELEMENT_THEORY></metadata><data><meanElements><EPOCH>2026-01-26T18:39:36.362016</EPOCH><MEAN_MOTION>14.39312102</MEAN_MOTION><ECCENTRICITY>.0003585</ECCENTRICITY><INCLINATION>44.9905</INCLINATION><RA_OF_ASC_NODE>193.2215</RA_OF_ASC_NODE><ARG_OF_PERICENTER>324.6349</ARG_OF_PERICENTER><MEAN_ANOMALY>35.4261</MEAN_ANOMALY></meanElements><tleParameters><EPHEMERIS_TYPE>0</EPHEMERIS_TYPE><CLASSIFICATION_TYPE>U</CLASSIFICATION_TYPE><NORAD_CAT_ID>25414</NORAD_CAT_ID><ELEMENT_SET_NO>999</ELEMENT_SET_NO><REV_AT_EPOCH>43645</REV_AT_EPOCH><BSTAR>.79194E-3</BSTAR><MEAN_MOTION_DOT>.2341E-4</MEAN_MOTION_DOT><MEAN_MOTION_DDOT>0</MEAN_MOTION_DDOT></tleParameters></data></segment></body></omm>
<omm id="CCSDS_OMM_VERS" version="2.0">
<header><CREATION_DATE/><ORIGINATOR/></header><body><segment><metadata><OBJECT_NAME>ORBCOMM FM19</OBJECT_NAME><OBJECT_ID>1998-046C</OBJECT_ID><CENTER_NAME>EARTH</CENTER_NAME><REF_FRAME>TEME</REF_FRAME><TIME_SYSTEM>UTC</TIME_SYSTEM><MEAN_ELEMENT_THEORY>SGP4</MEAN_ELEMENT_THEORY></metadata><data><meanElements><EPOCH>2026-01-26T20:27:50.405472</EPOCH><MEAN_MOTION>14.39134221</MEAN_MOTION><ECCENTRICITY>.0002423</ECCENTRICITY><INCLINATION>44.9914</INCLINATION><RA_OF_ASC_NODE>195.2035</RA_OF_ASC_NODE><ARG_OF_PERICENTER>316.4788</ARG_OF_PERICENTER><MEAN_ANOMALY>199.9439</MEAN_ANOMALY></meanElements><tleParameters><EPHEMERIS_TYPE>0</EPHEMERIS_TYPE><CLASSIFICATION_TYPE>U</CLASSIFICATION_TYPE><NORAD_CAT_ID>25415</NORAD_CAT_ID><ELEMENT_SET_NO>999</ELEMENT_SET_NO><REV_AT_EPOCH>43641</REV_AT_EPOCH><BSTAR>.6976E-3</BSTAR><MEAN_MOTION_DOT>.2037E-4</MEAN_MOTION_DOT><MEAN_MOTION_DDOT>0</MEAN_MOTION_DDOT></tleParameters></data></segment></body></omm>

</ndm>
